P/2012 T3 (PANSTARRS),e,9.5563,114.3501,195.5181,6.153726,0.0645650,0.61595470,281.1204,04/05.0/2024,2000,g 15.0,4.0
# From MPC 82720
P/2012 U2 (PANSTARRS),e,10.7622,185.3229,228.3357,7.127667,0.0517944,0.50059189,215.0336,04/05.0/2024,2000,g 12.5,4.0
# From MPC 84024
P/2012 US27 (Siding Spring),e,39.3665,49.2290,0.8488,5.162834,0.0840179,0.64845536,343.2658,04/05.0/2024,2000,g 13.5,4.0
# From MPC 82721
P/2013 AL76 (Catalina),e,144.8866,146.0378,27.0654,6.501000,0.0594612,0.68586149,246.4801,04/05.0/2024,2000,g 16.0,4.0
# From MPC 91612
P/2013 G1 (Kowalski),e,5.4569,221.3098,51.4813,6.902974,0.0543438,0.51015137,205.2575,04/05.0/2024,2000,g 11.0,4.0
# From MPC 84025
P/2013 G4 (PANSTARRS),e,5.9179,339.5932,214.5780,4.434840,0.1055327,0.40904915,69.2301,04/05.0/2024,2000,g 15.0,4.0
# From MPC 91613
P/2013 J2 (McNaught),e,15.5061,289.3301,37.8753,6.225442,0.0634525,0.65652458,245.5995,04/05.0/2024,2000,g 13.0,4.0
# From MPC 86229
P/2013 N3 (PANSTARRS),e,2.1699,17.5461,323.9428,7.400469,0.0489570,0.59200613,181.1376,04/05.0/2024,2000,g 13.0,4.0
# From MPC 85834
P/2013 N5 (PANSTARRS),e,23.4432,187.1718,176.9561,6.797425,0.0556144,0.73214008,218.1002,04/05.0/2024,2000,g 17.0,4.0
# From MPC 85834
P/2013 P1 (PANSTARRS),e,18.7043,160.6472,138.2237,8.588977,0.0391554,0.60326802,158.9508,04/05.0/2024,2000,g 12.0,4.0
# From MPEC 2022-V95
P/2013 R3 (Catalina-PANSTARRS),e,0.8650,342.0418,11.2994,3.031167,0.1867623,0.27562090,2.8806,04/05.0/2024,2000,g 14.0,4.0
# From unp
P/2013 R3-A (Catalina-PANSTARRS),e,0.8641,341.9967,11.3782,3.030928,0.1867844,0.27555291,2.9506,04/05.0/2024,2000,g  9.0,4.0
# From MPEC 2015-M77
P/2013 R3-B (Catalina-PANSTARRS),e,0.8653,342.0526,11.3131,3.031142,0.1867646,0.27559712,2.8762,04/05.0/2024,2000,g  9.0,4.0
# From MPC 85835
P/2013 T1 (PANSTARRS),e,24.2864,10.1042,346.1740,5.855046,0.0695678,0.62400077,270.5775,04/05.0/2024,2000,g 16.5,4.0
# From MPC 86643
P/2013 T2 (Schwartz),e,9.4514,0.8199,345.5807,3.492806,0.1509880,0.50056318,239.6379,04/05.0/2024,2000,g 16.0,4.0
# From MPC 91613
P/2013 W1 (PANSTARRS),e,4.6984,117.8300,1.2228,3.486132,0.1514218,0.59344168,197.2017,04/05.0/2024,2000,g 17.5,4.0
# From MPC101095
P/2013 YG46 (Spacewatch),e,7.8537,48.8418,242.7214,3.281601,0.1657965,0.45637366,75.2553,04/05.0/2024,2000,g 10.0,4.0
# From MPC 89728
P/2014 A2 (Hill),e,24.5582,106.6504,356.1527,5.924928,0.0683407,0.64635839,261.6333,04/05.0/2024,2000,g 15.0,4.0
# From MPEC 2024-F34
P/2014 C1 (TOTAS),e,3.2866,40.1829,188.6364,3.988809,0.1237198,0.35357078,169.3673,04/05.0/2024,2000,g 15.5,4.0
# From MPEC 2022-WD2
C/2014 F3 (Sheppard-Trujillo),e,6.5215,326.0239,5.0332,14.43588,0.0179696,0.60357784,18.7284,04/05.0/2024,2000,g  6.0,4.0
# From MPC 98560
P/2014 L2 (NEOWISE),e,5.1957,149.3565,182.7149,6.308273,0.0622069,0.64701617,220.5918,04/05.0/2024,2000,g 12.0,4.0
# From MPC 90769
P/2014 L3 (Hill),e,6.2611,115.5236,178.6901,8.182248,0.0421110,0.77166731,150.3602,04/05.0/2024,2000,g 16.0,4.0
# From MPC 91614
P/2014 M4 (PANSTARRS),e,3.3456,263.2050,148.0793,5.865065,0.0693897,0.59610266,234.5356,04/05.0/2024,2000,g 15.0,4.0
# From MPEC 2022-K19
P/2014 MG4 (Spacewatch-PANSTARRS),e,9.3646,311.7003,298.9607,5.014234,0.0877803,0.25874439,346.3971,04/05.0/2024,2000,g  9.5,4.0
# From MPC 98560
P/2014 O3 (PANSTARRS),e,7.7904,87.6289,204.7765,7.583546,0.0471950,0.38308173,172.0967,04/05.0/2024,2000,g 10.5,4.0
# From MPEC 2024-A43
C/2014 OG392 (PANSTARRS),e,9.0327,145.8201,254.8607,12.25962,0.0229609,0.18631621,19.1575,04/05.0/2024,2000,g  6.0,4.0
# From MPC 91616
P/2014 U4 (PANSTARRS),e,6.4262,11.9253,347.8519,3.510743,0.1498323,0.46433432,171.7882,04/05.0/2024,2000,g 18.0,4.0
# From MPEC 2024-F34
C/2014 UN271 (Bernardinelli-Bernstein),h,01/18.1364/2031,95.4363,189.9179,326.1274,1.003157,10.956012,2000,2.5,3.2
# From MPC 95211
P/2014 V1 (PANSTARRS),e,22.5130,166.2077,177.6636,5.479744,0.0768358,0.53391392,257.7314,04/05.0/2024,2000,g 14.0,4.0
# From MPC105542
P/2014 W4 (PANSTARRS),e,15.2863,33.3398,67.6399,6.582969,0.0583541,0.35449333,175.8967,04/05.0/2024,2000,g 11.0,4.0
# From MPC 94281
P/2014 X1 (Elenin),e,26.0537,61.5572,33.8993,6.201256,0.0638241,0.71047152,215.6340,04/05.0/2024,2000,g 15.0,4.0
# From MPC 92275
P/2015 A3 (PANSTARRS),e,172.5485,277.4350,249.6007,7.817769,0.0450900,0.85034930,150.2486,04/05.0/2024,2000,g 20.0,4.0
# From MPC 99270
P/2015 B1 (PANSTARRS),e,18.0714,352.8775,188.7567,9.481343,0.0337598,0.36634951,105.7944,04/05.0/2024,2000,g  8.5,4.0
# From MPC109141
P/2015 B4 (Lemmon-PANSTARRS),e,1.7665,266.1136,227.1258,8.508739,0.0397106,0.56168750,132.9135,04/05.0/2024,2000,g 11.0,4.0
# From MPC101096
P/2015 C1 (TOTAS-Gibbs),e,13.9460,348.7868,178.0058,6.564353,0.0586025,0.56335705,191.5498,04/05.0/2024,2000,g 12.5,4.0
# From MPC109141
P/2015 D5 (Kowalski),e,20.5505,74.0868,39.5969,8.946657,0.0368309,0.49115419,134.5269,04/05.0/2024,2000,g  9.0,4.0
# From MPC 96866
P/2015 D6 (Lemmon-PANSTARRS),e,20.2254,45.7238,124.9625,7.128578,0.0517845,0.36227193,166.0700,04/05.0/2024,2000,g 10.5,4.0
# From MPC 95213
P/2015 K5 (PANSTARRS),e,39.9349,134.2726,106.2044,6.727716,0.0564810,0.55143716,182.7800,04/05.0/2024,2000,g 13.5,4.0
# From MPC107684
P/2015 M2 (PANSTARRS),e,3.9681,86.7014,225.9418,7.251192,0.0504766,0.17845459,158.0472,04/05.0/2024,2000,g  8.5,4.0
# From MPC 99819
P/2015 P4 (PANSTARRS),e,8.7204,104.7082,280.6927,6.046959,0.0662825,0.58563671,198.3198,04/05.0/2024,2000,g 14.0,4.0
# From MPEC 2022-K19
P/2015 PD229 (Cameron-ISON),e,2.0225,342.7344,352.7218,7.200981,0.0510055,0.32627570,160.9593,04/05.0/2024,2000,g 11.5,2.0
# From MPC 96867
P/2015 Q2 (Pimentel),e,146.5600,228.5619,244.6803,7.351789,0.0494441,0.75137279,154.7251,04/05.0/2024,2000,g 15.5,4.0
# From MPC 98562
P/2015 R1 (PANSTARRS),e,22.6887,48.3745,300.5522,5.882153,0.0690875,0.63365283,221.1188,04/05.0/2024,2000,g 14.0,4.0
# From MPC 95734
P/2015 R2 (PANSTARRS),e,15.4811,168.6099,149.8643,4.483029,0.1038357,0.45238965,333.5534,04/05.0/2024,2000,g 14.5,4.0
# From MPC102953
P/2015 TO19 (Lemmon-PANSTARRS),e,6.5043,321.6611,89.2606,4.548777,0.1015926,0.35969634,299.3267,04/05.0/2024,2000,g 14.0,4.0
# From MPC110080
P/2015 TP200 (LINEAR),e,8.7819,6.9718,82.4842,7.262189,0.0503620,0.53709724,136.5925,04/05.0/2024,2000,g 11.0,4.0
# From MPC101098
P/2015 W2 (Catalina),e,11.6154,294.1318,117.6112,7.291317,0.0500605,0.63558879,155.3240,04/05.0/2024,2000,g 13.0,4.0
# From MPEC 2023-J29
P/2015 X3 (PANSTARRS),e,24.4211,77.2558,306.9197,5.000760,0.0881353,0.44010413,277.9243,04/05.0/2024,2000,g 15.0,4.0
# From MPC115881
P/2015 X6 (PANSTARRS),e,4.5654,106.9383,329.8310,2.751296,0.2159724,0.17358388,273.2141,04/05.0/2024,2000,g 16.0,4.0
# From MPC100282
P/2016 A2 (Christensen),e,26.4051,291.5949,141.3329,4.753566,0.0950987,0.27130539,306.1809,04/05.0/2024,2000,g 11.5,4.0
# From MPEC 2022-OB6
P/2016 A3 (PANSTARRS),e,8.5148,187.1785,340.8220,7.872440,0.0446211,0.38638845,113.1947,04/05.0/2024,2000,g 10.0,4.0
# From MPC102098
P/2016 A7 (PANSTARRS),e,16.6052,221.4572,352.4673,5.036952,0.0871871,0.56615581,259.3371,04/05.0/2024,2000,g 16.0,4.0
# From MPEC 2021-P47
P/2016 G1 (PANSTARRS),e,10.9709,204.0170,111.1144,2.583870,0.2373002,0.21024039,263.6120,04/05.0/2024,2000,g 14.0,4.0
# From MPEC 2024-EE3
P/2016 J1-B (PANSTARRS),e,14.3099,199.7954,47.9056,3.182944,0.1735644,0.22642778,134.0222,04/05.0/2024,2000,g 17.0,4.0
# From MPEC 2024-C04
C/2016 J2 (Denneau),h,04/13.7797/2016,130.3326,186.4391,318.4175,1.000562,1.498759,2000,17.0,4.0
# From MPC102099
P/2016 P1 (PANSTARRS),e,24.3810,319.4244,270.6561,3.202028,0.1720150,0.28836548,177.0282,04/05.0/2024,2000,g 15.0,4.0
# From MPEC 2023-R20
C/2016 Q2 (PANSTARRS),h,05/12.3148/2021,109.3579,322.3330,84.5521,1.003219,7.080938,2000,6.0,4.0
# From MPEC 2022-K19
P/2016 R4 (Gibbs),e,10.8715,168.2825,174.1307,5.334810,0.0799882,0.47546618,224.9432,04/05.0/2024,2000,g 12.5,4.0
# From MPC105543
P/2016 S1 (PANSTARRS),e,94.7396,227.6775,273.2045,8.271052,0.0414346,0.71124114,106.6669,04/05.0/2024,2000,g 12.0,4.0
# From MPC106345
P/2016 WM48 (Lemmon),e,117.6324,59.9528,36.1753,8.172981,0.0421826,0.78369202,109.5037,04/05.0/2024,2000,g 15.0,4.0
# From MPEC 2021-P47
C/2016 X1 (Lemmon),e,26.4673,256.3076,224.5306,1792,0.0000130,0.99578316,0.0000,04/28.9965/2019,2000,g  6.0,4.0
# From MPEC 2022-OB6
C/2017 B3 (LINEAR),e,54.1806,2.1959,284.8245,7102,0.0000016,0.99944613,0.0000,01/31.1463/2019,2000,g  6.0,4.0
# From MPC103847
P/2017 B4 (PANSTARRS),e,20.0584,121.4578,11.0197,4.410520,0.1064068,0.36495152,359.9130,01/05.0/2017,2000,g 14.5,4.0
# From MPEC 2022-OB6
P/2017 D1 (Fuls),e,20.7721,82.1993,7.9916,4.825281,0.0929866,0.43759604,264.1415,04/05.0/2024,2000,g 14.0,4.0
# From MPEC 2022-OB6
P/2017 D4 (PANSTARRS),e,10.5572,264.9053,212.1276,7.543762,0.0475688,0.62996751,131.5940,04/05.0/2024,2000,g 13.0,4.0
# From MPEC 2024-C04
P/2017 G1 (PANSTARRS),e,5.1548,247.1352,225.2361,7.194442,0.0510750,0.65022214,148.5920,04/05.0/2024,2000,g 13.5,4.0
# From MPC108595
P/2017 G2 (PANSTARRS),e,47.9676,79.8906,105.2821,8.042407,0.0432141,0.64802835,107.6875,04/05.0/2024,2000,g 13.0,4.0
# From MPEC 2024-F34
C/2017 K2 (PANSTARRS),h,12/19.6023/2022,87.5810,88.2292,236.2076,1.000454,1.797786,2000,1.5,4.0
# From MPEC 2021-N06
P/2017 K3 (Gasparovic),e,4.2735,354.2975,253.3227,5.584954,0.0746749,0.57893456,187.2832,04/05.0/2024,2000,g 14.5,4.0
# From MPEC 2021-P47
C/2017 K5 (PANSTARRS),h,03/26.7683/2020,82.2699,102.4347,172.0281,1.003904,7.684409,2000,5.0,4.0
# From MPEC 2022-OB6
C/2017 M4 (ATLAS),h,01/17.8958/2019,105.6247,66.0169,167.5212,1.000755,3.244452,2000,6.0,4.0
# From MPC114599
P/2017 P1 (PANSTARRS),e,7.6878,221.4618,122.7988,7.920108,0.0442188,0.30998219,93.4536,04/05.0/2024,2000,g 10.0,4.0
# From MPEC 2022-OB6
P/2017 S8 (PANSTARRS),e,29.8445,191.5323,254.8718,2.778784,0.2127756,0.39100062,120.7824,04/05.0/2024,2000,g 16.0,4.0
# From MPEC 2024-A43
C/2017 T2 (PANSTARRS),e,57.2910,64.4482,92.8331,1489,0.0000172,0.99891937,0.0000,05/05.2151/2020,2000,g  5.0,4.0
# From MPC115882
